[{"OBJECT_NAME":"YAOGAN-30 08C","OBJECT_ID":"2020-076C","EPOCH":"2026-03-09T22:12:19.215360","MEAN_MOTION":15.02142271,"ECCENTRICITY":0.00075536,"INCLINATION":34.9972,"RA_OF_ASC_NODE":335.6323,"ARG_OF_PERICENTER":280.0853,"MEAN_ANOMALY":79.9003,"EPHEMERIS_TYPE":0,"CLASSIFICATION_TYPE":"U","NORAD_CAT_ID":46809,"ELEMENT_SET_NO":999,"REV_AT_EPOCH":29320,"BSTAR":0.00034959402,"MEAN_MOTION_DOT":4.668e-5,"MEAN_MOTION_DDOT":0},{"OBJECT_NAME":"STARLINK-5675","OBJECT_ID":"2023-013K","EPOCH":"2026-03-09T01:20:01.413888","MEAN_MOTION":15.02533778,"ECCENTRICITY":0.00012902,"INCLINATION":43.0048,"RA_OF_ASC_NODE":303.8156,"ARG_OF_PERICENTER":259.4666,"MEAN_ANOMALY":100.6031,"EPHEMERIS_TYPE":0,"CLASSIFICATION_TYPE":"U","NORAD_CAT_ID":55340,"ELEMENT_SET_NO":999,"REV_AT_EPOCH":17161,"BSTAR":4.021526e-6,"MEAN_MOTION_DOT":-1.49e-6,"MEAN_MOTION_DDOT":0}]
